[{"OBJECT_NAME":"ONEWEB-0277","OBJECT_ID":"2021-060AE","EPOCH":"2025-12-03T06:41:58.315488","MEAN_MOTION":13.16599483,"ECCENTRICITY":0.00019903,"INCLINATION":87.9028,"RA_OF_ASC_NODE":267.8107,"ARG_OF_PERICENTER":78.571,"MEAN_ANOMALY":281.5645,"EPHEMERIS_TYPE":0,"CLASSIFICATION_TYPE":"U","NORAD_CAT_ID":48995,"ELEMENT_SET_NO":999,"REV_AT_EPOCH":21378,"BSTAR":0.00020894006,"MEAN_MOTION_DOT":9.3e-7,"MEAN_MOTION_DDOT":0},{"OBJECT_NAME":"ONEWEB-0278","OBJECT_ID":"2021-060AF","EPOCH":"2025-12-03T08:17:46.279392","MEAN_MOTION":13.16596486,"ECCENTRICITY":0.000159,"INCLINATION":87.904,"RA_OF_ASC_NODE":267.7687,"ARG_OF_PERICENTER":71.6147,"MEAN_ANOMALY":288.5156,"EPHEMERIS_TYPE":0,"CLASSIFICATION_TYPE":"U","NORAD_CAT_ID":48996,"ELEMENT_SET_NO":999,"REV_AT_EPOCH":21392,"BSTAR":8.8379596e-5,"MEAN_MOTION_DOT":4.7e-7,"MEAN_MOTION_DDOT":0},{"OBJECT_NAME":"ONEWEB-0279","OBJECT_ID":"2021-060AG","EPOCH":"2025-12-03T06:39:45.895392","MEAN_MOTION":13.16594752,"ECCENTRICITY":0.00020835,"INCLINATION":87.904,"RA_OF_ASC_NODE":267.7799,"ARG_OF_PERICENTER":77.4706,"MEAN_ANOMALY":282.6658,"EPHEMERIS_TYPE":0,"CLASSIFICATION_TYPE":"U","NORAD_CAT_ID":48997,"ELEMENT_SET_NO":999,"REV_AT_EPOCH":21384,"BSTAR":9.708209e-5,"MEAN_MOTION_DOT":5.0e-7,"MEAN_MOTION_DDOT":0},{"OBJECT_NAME":"ONEWEB-0280","OBJECT_ID":"2021-060AH","EPOCH":"2025-12-03T07:01:23.193984","MEAN_MOTION":13.16592197,"ECCENTRICITY":0.0001873,"INCLINATION":87.9038,"RA_OF_ASC_NODE":267.7829,"ARG_OF_PERICENTER":63.8612,"MEAN_ANOMALY":296.2712,"EPHEMERIS_TYPE":0,"CLASSIFICATION_TYPE":"U","NORAD_CAT_ID":48998,"ELEMENT_SET_NO":999,"REV_AT_EPOCH":21378,"BSTAR":-9.356733e-5,"MEAN_MOTION_DOT":-2.3e-7,"MEAN_MOTION_DDOT":0},{"OBJECT_NAME":"ONEWEB-0281","OBJECT_ID":"2021-060AJ","EPOCH":"2025-12-03T07:09:23.039712","MEAN_MOTION":13.1659578,"ECCENTRICITY":0.00017703,"INCLINATION":87.9039,"RA_OF_ASC_NODE":267.7773,"ARG_OF_PERICENTER":79.2171,"MEAN_ANOMALY":280.9159,"EPHEMERIS_TYPE":0,"CLASSIFICATION_TYPE":"U","NORAD_CAT_ID":48999,"ELEMENT_SET_NO":999,"REV_AT_EPOCH":21385,"BSTAR":-0.00014724524,"MEAN_MOTION_DOT":-4.3e-7,"MEAN_MOTION_DDOT":0},{"OBJECT_NAME":"ONEWEB-0282","OBJECT_ID":"2021-060AK","EPOCH":"2025-12-03T07:52:42.496032","MEAN_MOTION":13.16595295,"ECCENTRICITY":0.00019231,"INCLINATION":87.9036,"RA_OF_ASC_NODE":267.7822,"ARG_OF_PERICENTER":72.5663,"MEAN_ANOMALY":287.5678,"EPHEMERIS_TYPE":0,"CLASSIFICATION_TYPE":"U","NORAD_CAT_ID":49000,"ELEMENT_SET_NO":999,"REV_AT_EPOCH":21383,"BSTAR":0.0001700749,"MEAN_MOTION_DOT":7.8e-7,"MEAN_MOTION_DDOT":0},{"OBJECT_NAME":"ONEWEB-0283","OBJECT_ID":"2021-060AL","EPOCH":"2025-12-03T07:36:44.456544","MEAN_MOTION":13.16595768,"ECCENTRICITY":0.00019382,"INCLINATION":87.9038,"RA_OF_ASC_NODE":267.7848,"ARG_OF_PERICENTER":75.8824,"MEAN_ANOMALY":284.2523,"EPHEMERIS_TYPE":0,"CLASSIFICATION_TYPE":"U","NORAD_CAT_ID":49001,"ELEMENT_SET_NO":999,"REV_AT_EPOCH":21384,"BSTAR":0.00012283763,"MEAN_MOTION_DOT":6.0e-7,"MEAN_MOTION_DDOT":0},{"OBJECT_NAME":"ONEWEB-0284","OBJECT_ID":"2021-060AM","EPOCH":"2025-12-03T07:27:37.921248","MEAN_MOTION":13.16594682,"ECCENTRICITY":0.00017063,"INCLINATION":87.9043,"RA_OF_ASC_NODE":267.7748,"ARG_OF_PERICENTER":63.0541,"MEAN_ANOMALY":297.0764,"EPHEMERIS_TYPE":0,"CLASSIFICATION_TYPE":"U","NORAD_CAT_ID":49002,"ELEMENT_SET_NO":999,"REV_AT_EPOCH":21382,"BSTAR":-0.00011497249,"MEAN_MOTION_DOT":-3.1e-7,"MEAN_MOTION_DDOT":0},{"OBJECT_NAME":"ONEWEB-0285","OBJECT_ID":"2021-075A","EPOCH":"2025-12-03T04:58:07.482720","MEAN_MOTION":13.12444706,"ECCENTRICITY":0.00017269,"INCLINATION":87.8951,"RA_OF_ASC_NODE":29.5915,"ARG_OF_PERICENTER":96.6266,"MEAN_ANOMALY":263.5059,"EPHEMERIS_TYPE":0,"CLASSIFICATION_TYPE":"U","NORAD_CAT_ID":49075,"ELEMENT_SET_NO":999,"REV_AT_EPOCH":20950,"BSTAR":0.00084334981,"MEAN_MOTION_DOT":3.16e-6,"MEAN_MOTION_DDOT":0},{"OBJECT_NAME":"ONEWEB-0286","OBJECT_ID":"2021-075B","EPOCH":"2025-12-03T04:32:01.431744","MEAN_MOTION":13.12444478,"ECCENTRICITY":0.00016587,"INCLINATION":87.8945,"RA_OF_ASC_NODE":29.6284,"ARG_OF_PERICENTER":105.4781,"MEAN_ANOMALY":254.6531,"EPHEMERIS_TYPE":0,"CLASSIFICATION_TYPE":"U","NORAD_CAT_ID":49076,"ELEMENT_SET_NO":999,"REV_AT_EPOCH":20885,"BSTAR":-0.0006133883,"MEAN_MOTION_DOT":-2.08e-6,"MEAN_MOTION_DDOT":0},{"OBJECT_NAME":"ONEWEB-0287","OBJECT_ID":"2021-075C","EPOCH":"2025-12-03T04:12:36.749376","MEAN_MOTION":13.1764637,"ECCENTRICITY":0.0001381,"INCLINATION":87.9129,"RA_OF_ASC_NODE":44.8422,"ARG_OF_PERICENTER":115.6685,"MEAN_ANOMALY":244.459,"EPHEMERIS_TYPE":0,"CLASSIFICATION_TYPE":"U","NORAD_CAT_ID":49077,"ELEMENT_SET_NO":999,"REV_AT_EPOCH":20781,"BSTAR":0.00025183475,"MEAN_MOTION_DOT":1.11e-6,"MEAN_MOTION_DDOT":0},{"OBJECT_NAME":"ONEWEB-0288","OBJECT_ID":"2021-075D","EPOCH":"2025-12-03T03:57:11.630880","MEAN_MOTION":13.124429,"ECCENTRICITY":0.00015925,"INCLINATION":87.8948,"RA_OF_ASC_NODE":29.5952,"ARG_OF_PERICENTER":96.2685,"MEAN_ANOMALY":263.8625,"EPHEMERIS_TYPE":0,"CLASSIFICATION_TYPE":"U","NORAD_CAT_ID":49078,"ELEMENT_SET_NO":999,"REV_AT_EPOCH":20947,"BSTAR":-0.00030196971,"MEAN_MOTION_DOT":-9.6e-7,"MEAN_MOTION_DDOT":0},{"OBJECT_NAME":"ONEWEB-0289","OBJECT_ID":"2021-075E","EPOCH":"2025-12-03T05:08:15.814752","MEAN_MOTION":13.17648605,"ECCENTRICITY":0.00015857,"INCLINATION":87.9119,"RA_OF_ASC_NODE":44.8511,"ARG_OF_PERICENTER":86.6924,"MEAN_ANOMALY":273.4389,"EPHEMERIS_TYPE":0,"CLASSIFICATION_TYPE":"U","NORAD_CAT_ID":49079,"ELEMENT_SET_NO":999,"REV_AT_EPOCH":20839,"BSTAR":-5.0763857e-5,"MEAN_MOTION_DOT":-7.0e-8,"MEAN_MOTION_DDOT":0},{"OBJECT_NAME":"ONEWEB-0290","OBJECT_ID":"2021-075F","EPOCH":"2025-12-03T04:29:34.892160","MEAN_MOTION":13.17650192,"ECCENTRICITY":0.0001844,"INCLINATION":87.9129,"RA_OF_ASC_NODE":44.8176,"ARG_OF_PERICENTER":81.9106,"MEAN_ANOMALY":278.2235,"EPHEMERIS_TYPE":0,"CLASSIFICATION_TYPE":"U","NORAD_CAT_ID":49080,"ELEMENT_SET_NO":999,"REV_AT_EPOCH":20780,"BSTAR":-2.5616705e-5,"MEAN_MOTION_DOT":3.0e-8,"MEAN_MOTION_DDOT":0},{"OBJECT_NAME":"ONEWEB-0291","OBJECT_ID":"2021-075G","EPOCH":"2025-12-03T05:57:03.799296","MEAN_MOTION":13.1764871,"ECCENTRICITY":0.00013137,"INCLINATION":87.9129,"RA_OF_ASC_NODE":44.8119,"ARG_OF_PERICENTER":100.4921,"MEAN_ANOMALY":259.6358,"EPHEMERIS_TYPE":0,"CLASSIFICATION_TYPE":"U","NORAD_CAT_ID":49081,"ELEMENT_SET_NO":999,"REV_AT_EPOCH":20780,"BSTAR":0.00020859808,"MEAN_MOTION_DOT":9.4e-7,"MEAN_MOTION_DDOT":0},{"OBJECT_NAME":"ONEWEB-0293","OBJECT_ID":"2021-075H","EPOCH":"2025-12-03T04:44:09.740544","MEAN_MOTION":13.17648694,"ECCENTRICITY":0.00016754,"INCLINATION":87.9119,"RA_OF_ASC_NODE":44.8436,"ARG_OF_PERICENTER":96.2446,"MEAN_ANOMALY":263.8877,"EPHEMERIS_TYPE":0,"CLASSIFICATION_TYPE":"U","NORAD_CAT_ID":49082,"ELEMENT_SET_NO":999,"REV_AT_EPOCH":20782,"BSTAR":4.5756865e-5,"MEAN_MOTION_DOT":3.1e-7,"MEAN_MOTION_DDOT":0},{"OBJECT_NAME":"ONEWEB-0294","OBJECT_ID":"2021-075J","EPOCH":"2025-12-03T04:06:31.827744","MEAN_MOTION":13.12443379,"ECCENTRICITY":0.0001569,"INCLINATION":87.8949,"RA_OF_ASC_NODE":29.5946,"ARG_OF_PERICENTER":82.9124,"MEAN_ANOMALY":277.2182,"EPHEMERIS_TYPE":0,"CLASSIFICATION_TYPE":"U","NORAD_CAT_ID":49083,"ELEMENT_SET_NO":999,"REV_AT_EPOCH":20886,"BSTAR":-0.00086183631,"MEAN_MOTION_DOT":-2.97e-6,"MEAN_MOTION_DDOT":0}]
