ONEWEB-0277             
1 48995U 21060AE  25337.27914717  .00000093  00000+0  20894-3 0  9999
2 48995  87.9028 267.8107 0001990  78.5710 281.5645 13.16599483213780
ONEWEB-0278             
1 48996U 21060AF  25337.34567453  .00000047  00000+0  88380-4 0  9993
2 48996  87.9040 267.7687 0001590  71.6147 288.5156 13.16596486213921
ONEWEB-0279             
1 48997U 21060AG  25337.27761453  .00000050  00000+0  97082-4 0  9995
2 48997  87.9040 267.7799 0002083  77.4706 282.6658 13.16594752213846
ONEWEB-0280             
1 48998U 21060AH  25337.29262956 -.00000023  00000+0 -93567-4 0  9998
2 48998  87.9038 267.7829 0001873  63.8612 296.2712 13.16592197213785
ONEWEB-0281             
1 48999U 21060AJ  25337.29818333 -.00000043  00000+0 -14725-3 0  9995
2 48999  87.9039 267.7773 0001770  79.2171 280.9159 13.16595780213856
ONEWEB-0282             
1 49000U 21060AK  25337.32826963  .00000078  00000+0  17007-3 0  9993
2 49000  87.9036 267.7822 0001923  72.5663 287.5678 13.16595295213832
ONEWEB-0283             
1 49001U 21060AL  25337.31718121  .00000060  00000+0  12284-3 0  9992
2 49001  87.9038 267.7848 0001938  75.8824 284.2523 13.16595768213843
ONEWEB-0284             
1 49002U 21060AM  25337.31085557 -.00000031  00000+0 -11497-3 0  9998
2 49002  87.9043 267.7748 0001706  63.0541 297.0764 13.16594682213828
ONEWEB-0285             
1 49075U 21075A   25337.20703105  .00000316  00000+0  84335-3 0  9993
2 49075  87.8951  29.5915 0001726  96.6266 263.5059 13.12444706209505
ONEWEB-0286             
1 49076U 21075B   25337.18890546 -.00000208  00000+0 -61339-3 0  9998
2 49076  87.8945  29.6284 0001658 105.4781 254.6531 13.12444478208853
ONEWEB-0287             
1 49077U 21075C   25337.17542534  .00000111  00000+0  25183-3 0  9997
2 49077  87.9129  44.8422 0001381 115.6685 244.4590 13.17646370207818
ONEWEB-0288             
1 49078U 21075D   25337.16471795 -.00000096  00000+0 -30197-3 0  9992
2 49078  87.8948  29.5952 0001592  96.2685 263.8625 13.12442900209479
ONEWEB-0289             
1 49079U 21075E   25337.21407193 -.00000007  00000+0 -50764-4 0  9995
2 49079  87.9119  44.8511 0001585  86.6924 273.4389 13.17648605208392
ONEWEB-0290             
1 49080U 21075F   25337.18720940  .00000003  00000+0 -25617-4 0  9995
2 49080  87.9129  44.8176 0001844  81.9106 278.2235 13.17650192207802
ONEWEB-0291             
1 49081U 21075G   25337.24796064  .00000094  00000+0  20860-3 0  9996
2 49081  87.9129  44.8119 0001313 100.4921 259.6358 13.17648710207805
ONEWEB-0293             
1 49082U 21075H   25337.19733496  .00000031  00000+0  45757-4 0  9995
2 49082  87.9119  44.8436 0001675  96.2446 263.8877 13.17648694207828
ONEWEB-0294             
1 49083U 21075J   25337.17120171 -.00000297  00000+0 -86184-3 0  9998
2 49083  87.8949  29.5946 0001569  82.9124 277.2182 13.12443379208863
